CCSDS_OMM_VERS = 2.0
CREATION_DATE  = 
ORIGINATOR     = 

OBJECT_NAME    = SL-14 R/B
OBJECT_ID      = 1986-046B
CENTER_NAME    = EARTH
REF_FRAME      = TEME
TIME_SYSTEM    = UTC
MEAN_ELEMENT_THEORY = SGP/SGP4

EPOCH          = 2026-03-09T12:54:35.151840
MEAN_MOTION    = 14.85590147
ECCENTRICITY   = .0021962
INCLINATION    = 82.4783
RA_OF_ASC_NODE = 80.3252
ARG_OF_PERICENTER = 225.8935
MEAN_ANOMALY   = 134.0474

EPHEMERIS_TYPE = 0
CLASSIFICATION_TYPE = U
NORAD_CAT_ID   = 16792
ELEMENT_SET_NO = 999
REV_AT_EPOCH   = 12638
BSTAR          = .63515E-4
MEAN_MOTION_DOT = .575E-5
MEAN_MOTION_DDOT = 0

CCSDS_OMM_VERS = 2.0
CREATION_DATE  = 
ORIGINATOR     = 

OBJECT_NAME    = SL-14 R/B
OBJECT_ID      = 1986-055B
CENTER_NAME    = EARTH
REF_FRAME      = TEME
TIME_SYSTEM    = UTC
MEAN_ELEMENT_THEORY = SGP/SGP4

EPOCH          = 2026-03-09T13:03:57.056832
MEAN_MOTION    = 14.85642540
ECCENTRICITY   = .0018196
INCLINATION    = 82.5203
RA_OF_ASC_NODE = 126.8109
ARG_OF_PERICENTER = 337.0313
MEAN_ANOMALY   = 142.6661

EPHEMERIS_TYPE = 0
CLASSIFICATION_TYPE = U
NORAD_CAT_ID   = 16882
ELEMENT_SET_NO = 999
REV_AT_EPOCH   = 11934
BSTAR          = .58611E-4
MEAN_MOTION_DOT = .533E-5
MEAN_MOTION_DDOT = 0

CCSDS_OMM_VERS = 2.0
CREATION_DATE  = 
ORIGINATOR     = 

OBJECT_NAME    = AJISAI (EGS)
OBJECT_ID      = 1986-061A
CENTER_NAME    = EARTH
REF_FRAME      = TEME
TIME_SYSTEM    = UTC
MEAN_ELEMENT_THEORY = SGP/SGP4

EPOCH          = 2026-03-09T13:22:14.155392
MEAN_MOTION    = 12.44515622
ECCENTRICITY   = .0011267
INCLINATION    = 50.0087
RA_OF_ASC_NODE = 93.7553
ARG_OF_PERICENTER = 286.6952
MEAN_ANOMALY   = 152.6299

EPHEMERIS_TYPE = 0
CLASSIFICATION_TYPE = U
NORAD_CAT_ID   = 16908
ELEMENT_SET_NO = 999
REV_AT_EPOCH   = 46798
BSTAR          = -.16593E-4
MEAN_MOTION_DOT = -.1E-5
MEAN_MOTION_DDOT = 0

CCSDS_OMM_VERS = 2.0
CREATION_DATE  = 
ORIGINATOR     = 

OBJECT_NAME    = SL-14 R/B
OBJECT_ID      = 1987-024B
CENTER_NAME    = EARTH
REF_FRAME      = TEME
TIME_SYSTEM    = UTC
MEAN_ELEMENT_THEORY = SGP/SGP4

EPOCH          = 2026-03-09T12:05:48.434784
MEAN_MOTION    = 14.86131846
ECCENTRICITY   = .0016678
INCLINATION    = 82.5248
RA_OF_ASC_NODE = 92.9383
ARG_OF_PERICENTER = 260.5784
MEAN_ANOMALY   = 99.3547

EPHEMERIS_TYPE = 0
CLASSIFICATION_TYPE = U
NORAD_CAT_ID   = 17567
ELEMENT_SET_NO = 999
REV_AT_EPOCH   = 8810
BSTAR          = .60867E-4
MEAN_MOTION_DOT = .559E-5
MEAN_MOTION_DDOT = 0

CCSDS_OMM_VERS = 2.0
CREATION_DATE  = 
ORIGINATOR     = 

OBJECT_NAME    = COSMOS 1833
OBJECT_ID      = 1987-027A
CENTER_NAME    = EARTH
REF_FRAME      = TEME
TIME_SYSTEM    = UTC
MEAN_ELEMENT_THEORY = SGP/SGP4

EPOCH          = 2026-03-08T22:33:36.979776
MEAN_MOTION    = 14.13055019
ECCENTRICITY   = .00243094
INCLINATION    = 70.9226
RA_OF_ASC_NODE = 327.5946
ARG_OF_PERICENTER = 215.5688
MEAN_ANOMALY   = 144.3814

EPHEMERIS_TYPE = 0
CLASSIFICATION_TYPE = U
NORAD_CAT_ID   = 17589
ELEMENT_SET_NO = 999
REV_AT_EPOCH   = 1021
BSTAR          = -.6277863E-4
MEAN_MOTION_DOT = -.166E-5
MEAN_MOTION_DDOT = 0

CCSDS_OMM_VERS = 2.0
CREATION_DATE  = 
ORIGINATOR     = 

OBJECT_NAME    = SL-16 R/B
OBJECT_ID      = 1987-027B
CENTER_NAME    = EARTH
REF_FRAME      = TEME
TIME_SYSTEM    = UTC
MEAN_ELEMENT_THEORY = SGP/SGP4

EPOCH          = 2026-03-09T13:13:36.583968
MEAN_MOTION    = 14.17165875
ECCENTRICITY   = .0003465
INCLINATION    = 71.0010
RA_OF_ASC_NODE = 276.7875
ARG_OF_PERICENTER = 142.9916
MEAN_ANOMALY   = 217.1447

EPHEMERIS_TYPE = 0
CLASSIFICATION_TYPE = U
NORAD_CAT_ID   = 17590
ELEMENT_SET_NO = 999
REV_AT_EPOCH   = 1532
BSTAR          = .61939E-4
MEAN_MOTION_DOT = .77E-6
MEAN_MOTION_DDOT = 0

CCSDS_OMM_VERS = 2.0
CREATION_DATE  = 
ORIGINATOR     = 

OBJECT_NAME    = SL-14 R/B
OBJECT_ID      = 1987-038B
CENTER_NAME    = EARTH
REF_FRAME      = TEME
TIME_SYSTEM    = UTC
MEAN_ELEMENT_THEORY = SGP/SGP4

EPOCH          = 2026-03-08T16:34:21.824832
MEAN_MOTION    = 14.85368483
ECCENTRICITY   = .0019598
INCLINATION    = 82.5002
RA_OF_ASC_NODE = 297.7493
ARG_OF_PERICENTER = 163.6384
MEAN_ANOMALY   = 196.5469

EPHEMERIS_TYPE = 0
CLASSIFICATION_TYPE = U
NORAD_CAT_ID   = 17912
ELEMENT_SET_NO = 999
REV_AT_EPOCH   = 7908
BSTAR          = .63281882E-4
MEAN_MOTION_DOT = .57E-5
MEAN_MOTION_DDOT = 0

CCSDS_OMM_VERS = 2.0
CREATION_DATE  = 
ORIGINATOR     = 

OBJECT_NAME    = COSMOS 1844
OBJECT_ID      = 1987-041A
CENTER_NAME    = EARTH
REF_FRAME      = TEME
TIME_SYSTEM    = UTC
MEAN_ELEMENT_THEORY = SGP/SGP4

EPOCH          = 2026-03-09T07:54:33.286752
MEAN_MOTION    = 14.14552199
ECCENTRICITY   = .0030005
INCLINATION    = 70.8999
RA_OF_ASC_NODE = 34.9341
ARG_OF_PERICENTER = 18.2778
MEAN_ANOMALY   = 341.9415

EPHEMERIS_TYPE = 0
CLASSIFICATION_TYPE = U
NORAD_CAT_ID   = 17973
ELEMENT_SET_NO = 999
REV_AT_EPOCH   = 353
BSTAR          = -.58696E-4
MEAN_MOTION_DOT = -.162E-5
MEAN_MOTION_DDOT = 0

CCSDS_OMM_VERS = 2.0
CREATION_DATE  = 
ORIGINATOR     = 

OBJECT_NAME    = SL-14 R/B
OBJECT_ID      = 1987-055B
CENTER_NAME    = EARTH
REF_FRAME      = TEME
TIME_SYSTEM    = UTC
MEAN_ELEMENT_THEORY = SGP/SGP4

EPOCH          = 2026-03-09T06:34:17.472576
MEAN_MOTION    = 14.85628882
ECCENTRICITY   = .0021188
INCLINATION    = 82.5030
RA_OF_ASC_NODE = 349.4231
ARG_OF_PERICENTER = 19.1747
MEAN_ANOMALY   = 341.0261

EPHEMERIS_TYPE = 0
CLASSIFICATION_TYPE = U
NORAD_CAT_ID   = 18153
ELEMENT_SET_NO = 999
REV_AT_EPOCH   = 6987
BSTAR          = .78054E-4
MEAN_MOTION_DOT = .702E-5
MEAN_MOTION_DDOT = 0

CCSDS_OMM_VERS = 2.0
CREATION_DATE  = 
ORIGINATOR     = 

OBJECT_NAME    = COSMOS 1867
OBJECT_ID      = 1987-060A
CENTER_NAME    = EARTH
REF_FRAME      = TEME
TIME_SYSTEM    = UTC
MEAN_ELEMENT_THEORY = SGP/SGP4

EPOCH          = 2026-03-09T08:54:49.803264
MEAN_MOTION    = 14.31502991
ECCENTRICITY   = .0014485
INCLINATION    = 65.0113
RA_OF_ASC_NODE = 307.5970
ARG_OF_PERICENTER = 278.6534
MEAN_ANOMALY   = 81.2909

EPHEMERIS_TYPE = 0
CLASSIFICATION_TYPE = U
NORAD_CAT_ID   = 18187
ELEMENT_SET_NO = 999
REV_AT_EPOCH   = 1989
BSTAR          = .35743E-4
MEAN_MOTION_DOT = -.5E-7
MEAN_MOTION_DDOT = 0

CCSDS_OMM_VERS = 2.0
CREATION_DATE  = 
ORIGINATOR     = 

OBJECT_NAME    = SL-14 R/B
OBJECT_ID      = 1988-001B
CENTER_NAME    = EARTH
REF_FRAME      = TEME
TIME_SYSTEM    = UTC
MEAN_ELEMENT_THEORY = SGP/SGP4

EPOCH          = 2026-03-09T09:41:28.770144
MEAN_MOTION    = 14.85527298
ECCENTRICITY   = .0016845
INCLINATION    = 82.5153
RA_OF_ASC_NODE = 195.6288
ARG_OF_PERICENTER = 236.7850
MEAN_ANOMALY   = 123.1751

EPHEMERIS_TYPE = 0
CLASSIFICATION_TYPE = U
NORAD_CAT_ID   = 18749
ELEMENT_SET_NO = 999
REV_AT_EPOCH   = 4198
BSTAR          = .81534E-4
MEAN_MOTION_DOT = .729E-5
MEAN_MOTION_DDOT = 0

CCSDS_OMM_VERS = 2.0
CREATION_DATE  = 
ORIGINATOR     = 

OBJECT_NAME    = COSMOS 1933
OBJECT_ID      = 1988-020A
CENTER_NAME    = EARTH
REF_FRAME      = TEME
TIME_SYSTEM    = UTC
MEAN_ELEMENT_THEORY = SGP/SGP4

EPOCH          = 2026-03-09T12:38:04.574112
MEAN_MOTION    = 15.17979696
ECCENTRICITY   = .0003817
INCLINATION    = 82.5097
RA_OF_ASC_NODE = 251.0731
ARG_OF_PERICENTER = 181.0216
MEAN_ANOMALY   = 179.1011

EPHEMERIS_TYPE = 0
CLASSIFICATION_TYPE = U
NORAD_CAT_ID   = 18958
ELEMENT_SET_NO = 999
REV_AT_EPOCH   = 5020
BSTAR          = .25857E-3
MEAN_MOTION_DOT = .5283E-4
MEAN_MOTION_DDOT = 0

