SL-14 R/B               
1 16792U 86046B   26068.53790685  .00000575  00000+0  63515-4 0  9994
2 16792  82.4783  80.3252 0021962 225.8935 134.0474 14.85590147126380
SL-14 R/B               
1 16882U 86055B   26068.54441038  .00000533  00000+0  58611-4 0  9995
2 16882  82.5203 126.8109 0018196 337.0313 142.6661 14.85642540119342
AJISAI (EGS)            
1 16908U 86061A   26068.55710828 -.00000100  00000+0 -16593-4 0  9993
2 16908  50.0087  93.7553 0011267 286.6952 152.6299 12.44515622467983
SL-14 R/B               
1 17567U 87024B   26068.50403281  .00000559  00000+0  60867-4 0  9991
2 17567  82.5248  92.9383 0016678 260.5784  99.3547 14.86131846 88107
COSMOS 1833             
1 17589U 87027A   26067.94001134 -.00000166  00000+0 -62779-4 0  9996
2 17589  70.9226 327.5946 0024309 215.5688 144.3814 14.13055019 10215
SL-16 R/B               
1 17590U 87027B   26068.55111787  .00000077  00000+0  61939-4 0  9998
2 17590  71.0010 276.7875 0003465 142.9916 217.1447 14.17165875 15327
SL-14 R/B               
1 17912U 87038B   26067.69053038  .00000570  00000+0  63282-4 0  9997
2 17912  82.5002 297.7493 0019598 163.6384 196.5469 14.85368483 79087
COSMOS 1844             
1 17973U 87041A   26068.32955193 -.00000162  00000+0 -58696-4 0  9994
2 17973  70.8999  34.9341 0030005  18.2778 341.9415 14.14552199  3535
SL-14 R/B               
1 18153U 87055B   26068.27381334  .00000702  00000+0  78054-4 0  9992
2 18153  82.5030 349.4231 0021188  19.1747 341.0261 14.85628882 69872
COSMOS 1867             
1 18187U 87060A   26068.37140976 -.00000005  00000+0  35743-4 0  9996
2 18187  65.0113 307.5970 0014485 278.6534  81.2909 14.31502991 19892
SL-14 R/B               
1 18749U 88001B   26068.40380521  .00000729  00000+0  81534-4 0  9993
2 18749  82.5153 195.6288 0016845 236.7850 123.1751 14.85527298 41982
COSMOS 1933             
1 18958U 88020A   26068.52644183  .00005283  00000+0  25857-3 0  9991
2 18958  82.5097 251.0731 0003817 181.0216 179.1011 15.17979696 50208
